{"type": "FeatureCollection", "features": [ {"type": "Feature", "properties": {"norad_id": 42987, "name": "SKYSAT-C11", "group": "resource", "lat": 14.957697125590787, "lon": -47.70961359240049, "alt_km": 424.12951507121124, "timestamp": "2025-12-18T15:47:10.877936+00:00", "meta": {"OBJECT_NAME": "SKYSAT-C11", "OBJECT_ID": "2017-068A", "EPOCH": "2025-12-18T04:12:52.695360", "MEAN_MOTION": 15.47673714, "ECCENTRICITY": 0.00011655, "INCLINATION": 97.4139, "RA_OF_ASC_NODE": 129.8026, "ARG_OF_PERICENTER": 100.9043, "MEAN_ANOMALY": 259.2338, "EPHEMERIS_TYPE": 0, "CLASSIFICATION_TYPE": "U", "NORAD_CAT_ID": 42987, "ELEMENT_SET_NO": 999, "REV_AT_EPOCH": 45515, "BSTAR": 0.00038996641, "MEAN_MOTION_DOT": 0.00020081, "MEAN_MOTION_DDOT": 0}, "tle": {"line1": "1 42987U 17068A   25352.17560990  .00020081  00000+0  38997-3 0  9995", "line2": "2 42987  97.4139 129.8026 0001165 100.9043 259.2338 15.47673714455150"}}, "geometry": {"type": "Point", "coordinates": [-47.70961359240049, 14.957697125590787]}}, {"type": "Feature", "properties": {"norad_id": 42988, "name": "SKYSAT-C10", "group": "resource", "lat": -80.03611359623577, "lon": 171.46352291774733, "alt_km": 480.31693521698253, "timestamp": "2025-12-18T15:47:10.877946+00:00", "meta": {"OBJECT_NAME": "SKYSAT-C10", "OBJECT_ID": "2017-068B", "EPOCH": "2025-12-18T05:10:41.111040", "MEAN_MOTION": 15.32178093, "ECCENTRICITY": 0.00054304, "INCLINATION": 97.4258, "RA_OF_ASC_NODE": 123.0819, "ARG_OF_PERICENTER": 88.316, "MEAN_ANOMALY": 271.8704, "EPHEMERIS_TYPE": 0, "CLASSIFICATION_TYPE": "U", "NORAD_CAT_ID": 42988, "ELEMENT_SET_NO": 999, "REV_AT_EPOCH": 45463, "BSTAR": 0.00031254327, "MEAN_MOTION_DOT": 9.638e-05, "MEAN_MOTION_DDOT": 0}, "tle": {"line1": "1 42988U 17068B   25352.21575360  .00009638  00000+0  31254-3 0  9992", "line2": "2 42988  97.4258 123.0819 0005430  88.3160 271.8704 15.32178093454630"}}, "geometry": {"type": "Point", "coordinates": [171.46352291774733, -80.03611359623577]}}, {"type": "Feature", "properties": {"norad_id": 42989, "name": "SKYSAT-C9", "group": "resource", "lat": -29.242900185315584, "lon": -61.22537218568764, "alt_km": 468.95182611407836, "timestamp": "2025-12-18T15:47:10.877961+00:00", "meta": {"OBJECT_NAME": "SKYSAT-C9", "OBJECT_ID": "2017-068C", "EPOCH": "2025-12-18T07:03:42.551136", "MEAN_MOTION": 15.36190512, "ECCENTRICITY": 0.00105702, "INCLINATION": 97.419, "RA_OF_ASC_NODE": 122.5919, "ARG_OF_PERICENTER": 69.9784, "MEAN_ANOMALY": 290.2597, "EPHEMERIS_TYPE": 0, "CLASSIFICATION_TYPE": "U", "NORAD_CAT_ID": 42989, "ELEMENT_SET_NO": 999, "REV_AT_EPOCH": 45493, "BSTAR": 0.00034468923, "MEAN_MOTION_DOT": 0.00012101, "MEAN_MOTION_DDOT": 0}, "tle": {"line1": "1 42989U 17068C   25352.29424249  .00012101  00000+0  34469-3 0  9990", "line2": "2 42989  97.4190 122.5919 0010570  69.9784 290.2597 15.36190512454931"}}, "geometry": {"type": "Point", "coordinates": [-61.22537218568764, -29.242900185315584]}}, {"type": "Feature", "properties": {"norad_id": 42990, "name": "SKYSAT-C8", "group": "resource", "lat": 65.51094000165956, "lon": -40.67203606279038, "alt_km": 461.0995742399382, "timestamp": "2025-12-18T15:47:10.877971+00:00", "meta": {"OBJECT_NAME": "SKYSAT-C8", "OBJECT_ID": "2017-068D", "EPOCH": "2025-12-18T04:19:40.626912", "MEAN_MOTION": 15.33039437, "ECCENTRICITY": 0.00011978, "INCLINATION": 97.428, "RA_OF_ASC_NODE": 122.2043, "ARG_OF_PERICENTER": 320.7312, "MEAN_ANOMALY": 39.3843, "EPHEMERIS_TYPE": 0, "CLASSIFICATION_TYPE": "U", "NORAD_CAT_ID": 42990, "ELEMENT_SET_NO": 999, "REV_AT_EPOCH": 45454, "BSTAR": 0.00033004437, "MEAN_MOTION_DOT": 0.00010458, "MEAN_MOTION_DDOT": 0}, "tle": {"line1": "1 42990U 17068D   25352.18033133  .00010458  00000+0  33004-3 0  9995", "line2": "2 42990  97.4280 122.2043 0001197 320.7312  39.3843 15.33039437454546"}}, "geometry": {"type": "Point", "coordinates": [-40.67203606279038, 65.51094000165956]}}, {"type": "Feature", "properties": {"norad_id": 42991, "name": "SKYSAT-C7", "group": "resource", "lat": -43.64013565014116, "lon": 130.86748505096767, "alt_km": 474.5909197898618, "timestamp": "2025-12-18T15:47:10.877981+00:00", "meta": {"OBJECT_NAME": "SKYSAT-C7", "OBJECT_ID": "2017-068E", "EPOCH": "2025-12-17T21:10:21.597024", "MEAN_MOTION": 15.32433807, "ECCENTRICITY": 0.00073248, "INCLINATION": 97.4288, "RA_OF_ASC_NODE": 122.9414, "ARG_OF_PERICENTER": 41.2137, "MEAN_ANOMALY": 318.9657, "EPHEMERIS_TYPE": 0, "CLASSIFICATION_TYPE": "U", "NORAD_CAT_ID": 42991, "ELEMENT_SET_NO": 999, "REV_AT_EPOCH": 45456, "BSTAR": 0.00028855662, "MEAN_MOTION_DOT": 8.966e-05, "MEAN_MOTION_DDOT": 0}, "tle": {"line1": "1 42991U 17068E   25351.88219441  .00008966  00000+0  28856-3 0  9990", "line2": "2 42991  97.4288 122.9414 0007324  41.2137 318.9657 15.32433807454561"}}, "geometry": {"type": "Point", "coordinates": [130.86748505096767, -43.64013565014116]}}, {"type": "Feature", "properties": {"norad_id": 42992, "name": "SKYSAT-C6", "group": "resource", "lat": 54.3898573731384, "lon": 113.65193711943861, "alt_km": 462.50263889450525, "timestamp": "2025-12-18T15:47:10.877991+00:00", "meta": {"OBJECT_NAME": "SKYSAT-C6", "OBJECT_ID": "2017-068F", "EPOCH": "2025-12-18T04:34:15.430368", "MEAN_MOTION": 15.31600046, "ECCENTRICITY": 0.00050692, "INCLINATION": 97.4321, "RA_OF_ASC_NODE": 123.6852, "ARG_OF_PERICENTER": 67.7962, "MEAN_ANOMALY": 292.3817, "EPHEMERIS_TYPE": 0, "CLASSIFICATION_TYPE": "U", "NORAD_CAT_ID": 42992, "ELEMENT_SET_NO": 999, "REV_AT_EPOCH": 45459, "BSTAR": 0.00032153489, "MEAN_MOTION_DOT": 9.739e-05, "MEAN_MOTION_DDOT": 0}, "tle": {"line1": "1 42992U 17068F   25352.19045637  .00009739  00000+0  32153-3 0  9994", "line2": "2 42992  97.4321 123.6852 0005069  67.7962 292.3817 15.31600046454593"}}, "geometry": {"type": "Point", "coordinates": [113.65193711943861, 54.3898573731384]}}, {"type": "Feature", "properties": {"norad_id": 43111, "name": "CARTOSAT-2F", "group": "resource", "lat": -78.43581419498636, "lon": -169.4378567982973, "alt_km": 515.7764885276993, "timestamp": "2025-12-18T15:47:10.878001+00:00", "meta": {"OBJECT_NAME": "CARTOSAT-2F", "OBJECT_ID": "2018-004A", "EPOCH": "2025-12-18T06:44:14.474976", "MEAN_MOTION": 15.1933089, "ECCENTRICITY": 0.00014463, "INCLINATION": 97.4319, "RA_OF_ASC_NODE": 49.8294, "ARG_OF_PERICENTER": 137.6942, "MEAN_ANOMALY": 222.4404, "EPHEMERIS_TYPE": 0, "CLASSIFICATION_TYPE": "U", "NORAD_CAT_ID": 43111, "ELEMENT_SET_NO": 999, "REV_AT_EPOCH": 43986, "BSTAR": 0.00019521269, "MEAN_MOTION_DOT": 4.056e-05, "MEAN_MOTION_DDOT": 0}, "tle": {"line1": "1 43111U 18004A   25352.28072309  .00004056  00000+0  19521-3 0  9996", "line2": "2 43111  97.4319  49.8294 0001446 137.6942 222.4404 15.19330890439865"}}, "geometry": {"type": "Point", "coordinates": [-169.4378567982973, -78.43581419498636]}}, {"type": "Feature", "properties": {"norad_id": 43259, "name": "GAOFEN-1 02", "group": "resource", "lat": -15.451265407573992, "lon": -131.80100972670672, "alt_km": 643.9250342420819, "timestamp": "2025-12-18T15:47:10.878011+00:00", "meta": {"OBJECT_NAME": "GAOFEN-1 02", "OBJECT_ID": "2018-031A", "EPOCH": "2025-12-18T06:46:15.550752", "MEAN_MOTION": 14.76428112, "ECCENTRICITY": 0.0002103, "INCLINATION": 98.0806, "RA_OF_ASC_NODE": 50.0738, "ARG_OF_PERICENTER": 195.9186, "MEAN_ANOMALY": 164.1957, "EPHEMERIS_TYPE": 0, "CLASSIFICATION_TYPE": "U", "NORAD_CAT_ID": 43259, "ELEMENT_SET_NO": 999, "REV_AT_EPOCH": 41600, "BSTAR": 0.00015505706, "MEAN_MOTION_DOT": 1.026e-05, "MEAN_MOTION_DDOT": 0}, "tle": {"line1": "1 43259U 18031A   25352.28212443  .00001026  00000+0  15506-3 0  9997", "line2": "2 43259  98.0806  50.0738 0002103 195.9186 164.1957 14.76428112416004"}}, "geometry": {"type": "Point", "coordinates": [-131.80100972670672, -15.451265407573992]}}, {"type": "Feature", "properties": {"norad_id": 43260, "name": "GAOFEN-1 03", "group": "resource", "lat": -48.30864556340656, "lon": 59.50194702880196, "alt_km": 646.2435425787189, "timestamp": "2025-12-18T15:47:10.878033+00:00", "meta": {"OBJECT_NAME": "GAOFEN-1 03", "OBJECT_ID": "2018-031B", "EPOCH": "2025-12-18T07:52:30.481248", "MEAN_MOTION": 14.76448348, "ECCENTRICITY": 0.00017527, "INCLINATION": 98.0792, "RA_OF_ASC_NODE": 49.9957, "ARG_OF_PERICENTER": 293.5505, "MEAN_ANOMALY": 66.552, "EPHEMERIS_TYPE": 0, "CLASSIFICATION_TYPE": "U", "NORAD_CAT_ID": 43260, "ELEMENT_SET_NO": 999, "REV_AT_EPOCH": 41600, "BSTAR": 0.00011597342, "MEAN_MOTION_DOT": 7.55e-06, "MEAN_MOTION_DDOT": 0}, "tle": {"line1": "1 43260U 18031B   25352.32813057  .00000755  00000+0  11597-3 0  9996", "line2": "2 43260  98.0792  49.9957 0001752 293.5505  66.5520 14.76448348416003"}}, "geometry": {"type": "Point", "coordinates": [59.50194702880196, -48.30864556340656]}}, {"type": "Feature", "properties": {"norad_id": 43262, "name": "GAOFEN-1 04", "group": "resource", "lat": 77.74809942027967, "lon": 9.633725024897835, "alt_km": 632.6692292330117, "timestamp": "2025-12-18T15:47:10.878046+00:00", "meta": {"OBJECT_NAME": "GAOFEN-1 04", "OBJECT_ID": "2018-031D", "EPOCH": "2025-12-18T07:17:22.286688", "MEAN_MOTION": 14.76460753, "ECCENTRICITY": 8.51e-05, "INCLINATION": 98.0807, "RA_OF_ASC_NODE": 50.1418, "ARG_OF_PERICENTER": 60.4729, "MEAN_ANOMALY": 299.6565, "EPHEMERIS_TYPE": 0, "CLASSIFICATION_TYPE": "U", "NORAD_CAT_ID": 43262, "ELEMENT_SET_NO": 999, "REV_AT_EPOCH": 41599, "BSTAR": 8.125764e-05, "MEAN_MOTION_DOT": 5.14e-06, "MEAN_MOTION_DDOT": 0}, "tle": {"line1": "1 43262U 18031D   25352.30373017  .00000514  00000+0  81258-4 0  9998", "line2": "2 43262  98.0807  50.1418 0000851  60.4729 299.6565 14.76460753415995"}}, "geometry": {"type": "Point", "coordinates": [9.633725024897835, 77.74809942027967]}}]}